ONEWEB-0451             
1 51643U 22012X   24056.84838149 -.00000004  00000+0 -44439-4 0  9991
2 51643  87.9255 173.4020 0002035 105.9147 254.2208 13.17649271102738
ONEWEB-0452             
1 51644U 22012Y   24056.84680428  .00000041  00000+0  71405-4 0  9999
2 51644  87.9261 173.4359 0002167 110.4682 249.6683 13.17649050102743
ONEWEB-0455             
1 51645U 22012Z   24056.79310245  .00000473  00000+0  20332-3 0  9992
2 51645  87.5381 149.5962 0016602 359.1965   0.9196 14.22741354106324
ONEWEB-0456             
1 51646U 22012AA  24056.89067827 -.00000675  00000+0 -19708-2 0  9999
2 51646  87.8939 203.5792 0001321  91.9397 268.1882 13.10372669 99035
ONEWEB-0457             
1 51647U 22012AB  24056.94431264  .00000312  00000+0  85648-3 0  9999
2 51647  87.8946 203.5806 0001859 114.5092 245.6229 13.10369386 99048
ONEWEB-0458             
1 51648U 22012AC  24056.88905837 -.00000658  00000+0 -19203-2 0  9993
2 51648  87.8950 203.6062 0001793 100.7707 259.3622 13.10371227 98995
ONEWEB-0461             
1 51649U 22012AD  24056.86895255 -.00000043  00000+0 -14353-3 0  9994
2 51649  87.9257 173.4050 0001733 112.5675 247.5640 13.17649748102962
ONEWEB-0463             
1 51650U 22012AE  24057.30712857  .00005431  00000+0  13939-1 0  9993
2 51650  87.9274 173.3620 0002344 122.9820 237.1537 13.17679819104101
ONEWEB-0464             
1 51651U 22012AF  24056.88580916 -.00000578  00000+0 -16934-2 0  9993
2 51651  87.8947 203.5953 0001547  86.4459 273.6846 13.10371600 99010
ONEWEB-0468             
1 51652U 22012AG  24056.89230526 -.00000673  00000+0 -19641-2 0  9998
2 51652  87.8950 203.5871 0001578  99.0857 261.0449 13.10373042 98998
ONEWEB-0473             
1 51653U 22012AH  24056.95405589  .00001663  00000+0  47280-2 0  9997
2 51653  87.8946 203.5786 0002011  95.3193 264.8164 13.10361967 99005
ONEWEB-0474             
1 51654U 22012AJ  24056.94593494  .00000249  00000+0  67816-3 0  9997
2 51654  87.8936 203.5871 0001773  93.7332 266.3998 13.10370303 98994
ONEWEB-0475             
1 51655U 22012AK  24056.86262119  .00000387  00000+0  96356-3 0  9990
2 51655  87.9260 173.4269 0002071  96.0808 264.0560 13.17645954102763
ONEWEB-0490             
1 54113U 22138A   24056.88582282  .00000087  00000+0  18430-3 0  9993
2 54113  87.9143 112.6464 0001963  94.2618 265.8739 13.19725856 65739
ONEWEB-0492             
1 54114U 22138B   24057.13854843  .00000053  00000+0  99688-4 0  9996
2 54114  87.9147 112.5932 0001970  87.7837 272.3521 13.19725751 66648
ONEWEB-0495             
1 54115U 22138C   24056.88898658  .00000097  00000+0  21017-3 0  9998
2 54115  87.9150 112.6542 0002214  88.3224 271.8163 13.19725409 65724
ONEWEB-0497             
1 54116U 22138D   24056.90162653  .00000012  00000+0 -25109-5 0  9997
2 54116  87.9144 112.6449 0001971  93.4691 266.6667 13.19724690 65719
ONEWEB-0499             
1 54117U 22138E   24056.65679623  .00000041  00000+0  69423-4 0  9997
2 54117  87.9150 112.6897 0002555 101.7421 258.3998 13.19725726 65690
ONEWEB-0500             
1 54118U 22138F   24056.88740944  .00000218  00000+0  51118-3 0  9995
2 54118  87.9146 112.6433 0001892  95.0034 265.1315 13.19725678 65730
ONEWEB-0501             
1 54119U 22138G   24056.91742716  .00000085  00000+0  17899-3 0  9999
2 54119  87.9145 112.6374 0002365  85.6170 274.5233 13.19725681 65711
ONEWEB-0502             
1 54120U 22138H   24056.90320275  .00000013  00000+0  64260-7 0  9991
2 54120  87.9142 112.6311 0002236  91.2274 268.9115 13.19725188 65736
ONEWEB-0503             
1 54121U 22138J   24056.89216229  .00000023  00000+0  25550-4 0  9990
2 54121  87.9144 112.6402 0002196 108.3378 251.7994 13.19725188 65724
ONEWEB-0504             
1 54122U 22138K   24056.87951545  .00000083  00000+0  17380-3 0  9993
2 54122  87.9145 112.6461 0002373  96.1757 263.9646 13.19725081 65735
ONEWEB-0505             
1 54123U 22138L   24057.17962124 -.00000952  00000+0 -24096-2 0  9991
2 54123  87.9144 112.5828 0002632  84.8042 275.3391 13.19717529 66621
ONEWEB-0506             
1 54124U 22138M   24056.85107686  .00000128  00000+0  28742-3 0  9996
2 54124  87.9141 112.6454 0002133  91.8434 268.2942 13.19726562 65702
ONEWEB-0507             
1 54125U 22138N   24056.87162701  .00000163  00000+0  37576-3 0  9992
2 54125  87.9152 112.6527 0002047  88.3708 271.7660 13.19726757 65752
ONEWEB-0508             
1 54126U 22138P   24056.86845744  .00000154  00000+0  35139-3 0  9990
2 54126  87.9149 112.6501 0002336  84.9181 275.2218 13.19725095 65739
ONEWEB-0509             
1 54127U 22138Q   24056.84317830  .00000085  00000+0  18119-3 0  9991
2 54127  87.9141 112.6497 0002096  94.7357 265.4015 13.19726466 65709
ONEWEB-0510             
1 54128U 22138R   24057.47353353  .00000050  00000+0  90957-4 0  9995
2 54128  87.9129  81.9521 0001707  79.5207 280.6118 13.20771747 69076
ONEWEB-0511             
1 54129U 22138S   24057.14328481  .00000020  00000+0  17460-4 0  9999
2 54129  87.9143 112.5920 0002425 102.9103 257.2301 13.19726592 66641
ONEWEB-0512             
1 54130U 22138T   24057.13539317  .00000026  00000+0  32530-4 0  9993
2 54130  87.9152 112.6007 0002381  88.3686 271.7719 13.19725561 66610
ONEWEB-0513             
1 54131U 22138U   24056.87873167  .00000118  00000+0  26347-3 0  9998
2 54131  87.9149 112.6489 0002605  93.8509 266.2922 13.19727042 65592
ONEWEB-0514             
1 54132U 22138V   24056.84792373  .00000083  00000+0  17383-3 0  9996
2 54132  87.9144 112.6554 0002015  99.5815 260.5545 13.19725463 65727
ONEWEB-0515             
1 54133U 22138W   24056.77911389  .00000168  00000+0  38232-3 0  9999
2 54133  87.9127  82.0720 0000820 100.6660 259.4566 13.20771033 68109
ONEWEB-0516             
1 54134U 22138X   24056.89846697  .00000081  00000+0  16902-3 0  9996
2 54134  87.9152 112.6485 0001956  94.2321 265.9035 13.19725464 65733
ONEWEB-0517             
1 54135U 22138Y   24056.87793072  .00000028  00000+0  38395-4 0  9995
2 54135  87.9145 112.6454 0002299  95.1028 265.0368 13.19725436 65736
ONEWEB-0518             
1 54136U 22138Z   24056.89688501  .00000058  00000+0  11260-3 0  9992
2 54136  87.9150 112.6478 0002140 100.5507 259.5867 13.19726272 65738
ONEWEB-0519             
1 54137U 22138AA  24057.52868606  .00000116  00000+0  25754-3 0  9998
2 54137  87.9145 112.5127 0002469  94.9822 265.1592 13.19727002 66699
ONEWEB-0520             
1 54138U 22138AB  24056.88108419  .00000163  00000+0  37395-3 0  9992
2 54138  87.9144 112.6439 0002275  86.0515 274.0878 13.19726211 65722
ONEWEB-0521             
1 54139U 22138AC  24056.91426137  .00000062  00000+0  12196-3 0  9997
2 54139  87.9141 112.6322 0002120 106.1883 253.9483 13.19725447 65674
ONEWEB-0522             
1 54140U 22138AD  24056.66627836 -.00000025  00000+0 -94505-4 0  9996
2 54140  87.9143 112.6834 0001930  94.1514 265.9840 13.19724770 65680
ONEWEB-0523             
1 54141U 22138AE  24057.06951503 -.00000027  00000+0 -98382-4 0  9992
2 54141  87.9130  82.0415 0001455 121.2311 238.8965 13.20770687 69019
ONEWEB-0524             
1 54142U 22138AF  24056.83119351  .00000026  00000+0  30999-4 0  9991
2 54142  87.9128  82.0931 0000904  66.8077 293.3151 13.20771560 68115
ONEWEB-0525             
1 54143U 22138AG  24056.91268588  .00000046  00000+0  82131-4 0  9995
2 54143  87.9144 112.6401 0002197  90.3162 269.8223 13.19725230 65733
ONEWEB-0526             
1 54144U 22138AH  24056.87003773  .00000098  00000+0  21289-3 0  9997
2 54144  87.9143 112.6457 0001958  93.7563 266.3794 13.19725232 65704
ONEWEB-0529             
1 54145U 22138AJ  24056.72156239  .00000043  00000+0  75820-4 0  9999
2 54145  87.9152 112.6819 0002146  88.0531 272.0848 13.19724795 65706
ONEWEB-0531             
1 54146U 22138AK  24056.96850255  .00000071  00000+0  14277-3 0  9994
2 54146  87.9129  82.0553 0000910 118.0104 242.1121 13.20771706 68131
ONEWEB-0535             
1 54147U 22138AL  24057.13381641 -.00000019  00000+0 -78618-4 0  9997
2 54147  87.9143 112.5920 0001848 108.1156 252.0178 13.19724916 66648
ONEWEB-0536             
1 54148U 22138AM  24057.48617620  .00000080  00000+0  16449-3 0  9994
2 54148  87.9126  82.0019 0001622 128.5582 231.5697 13.20771923 69068
GSLV R/B                
1 54149U 22138AN  24057.52040162  .00004186  00000+0  43008-3 0  9993
2 54149  87.3772  54.2449 0022345 322.2166  37.7492 14.89960215 73158
ONEWEB-0527             
1 54642U 22166A   24057.50300619 -.00000017  00000+0 -73570-4 0  9995
2 54642  87.9217  51.5191 0001819  83.0661 277.0680 13.21824870 60790
ONEWEB-0528             
1 54643U 22166B   24057.50931255  .00000054  00000+0  98117-4 0  9995
2 54643  87.9221  51.5005 0002008  81.9154 278.2208 13.21825671 60806
ONEWEB-0539             
1 54644U 22166C   24057.46991474  .00012463  00000+0  30131-1 0  9996
2 54644  87.9223  51.5089 0002129  87.7245 272.4133 13.21764871 60795
ONEWEB-0540             
1 54645U 22166D   24057.01019535  .00000086  00000+0  17614-3 0  9998
2 54645  87.9217  51.6257 0002183  88.5903 271.5481 13.21825381 60742
ONEWEB-0542             
1 54646U 22166E   24056.94946727 -.00000660  00000+0 -16293-2 0  9993
2 54646  87.9225  51.6131 0002386  98.3936 261.7469 13.21831480 60275
ONEWEB-0545             
1 54647U 22166F   24056.99205575  .00000095  00000+0  19865-3 0  9997
2 54647  87.9209  51.6370 0002423  92.0375 268.1037 13.21825241 60712
ONEWEB-0580             
1 54648U 22166G   24057.49512195 -.00000005  00000+0 -44400-4 0  9990
2 54648  87.9221  51.4965 0002256 101.2444 258.8944 13.21825415 60816
ONEWEB-0582             
1 54649U 22166H   24057.00783077  .00000070  00000+0  13710-3 0  9996
2 54649  87.9217  51.6347 0002231  84.2486 275.8902 13.21825934 60737
ONEWEB-0583             
1 54650U 22166J   24056.94316708  .00000076  00000+0  15166-3 0  9996
2 54650  87.9215  51.6496 0001755  76.3486 283.7843 13.21825949 60260
